NORAD_CAT_ID,OBJECT_NAME,OBJECT_TYPE,EPOCH,MEAN_MOTION,ECCENTRICITY,INCLINATION,RA_OF_ASC_NODE,ARG_OF_PERICENTER,MEAN_ANOMALY,BSTAR,MEAN_MOTION_DOT,MEAN_MOTION_DDOT,TLE_LINE0,TLE_LINE1,TLE_LINE2,SEMIMAJOR_AXIS,PERIOD,APOGEE,PERIGEE,DECAYED
52280.0,STARLINK-3764,PAYLOAD,2022-05-15 22:00:00,15.652563199999998,0.0001531999999999,53.2173,255.0822,34.0661,333.4315,-0.0077388,-0.00717593,0.0,0 STARLINK-3764,1 52280U 22041V   22135.91667824 -.00717593  00000-0 -77388-2 0  9991,2 52280  53.2173 255.0822 0001532  34.0661 333.4315 15.65256320  1306,6750.639,91.998,373.538,371.469,0.0
52280.0,STARLINK-3764,PAYLOAD,2022-05-16 12:00:00,15.64363323,0.0002008,53.2176,252.2351,23.7282,31.7385,-0.008014,-0.0071715,0.0,0 STARLINK-3764,1 52280U 22041V   22136.50001157 -.00717150  00000-0 -80140-2 0  9997,2 52280  53.2176 252.2351 0002008  23.7282  31.7385 15.64363323  5139,6753.206999999999,92.05,376.42800000000005,373.716,0.0
52280.0,STARLINK-3764,PAYLOAD,2022-05-16 14:00:01,15.64234665,0.0002144,53.2173,251.8291,27.4198,137.6037,-0.0080343999999999,-0.00715477,0.0,0 STARLINK-3764,1 52280U 22041V   22136.58334491 -.00715477  00000-0 -80344-2 0  9991,2 52280  53.2173 251.8291 0002144  27.4198 137.6037 15.64234665  1303,6753.578,92.058,376.891,373.995,0.0
52280.0,STARLINK-3764,PAYLOAD,2022-05-16 22:00:00,15.63726885,0.0001655,53.2172,250.2041,39.7248,203.1416,-0.0082446,-0.00719076,0.0,0 STARLINK-3764,1 52280U 22041V   22136.91667824 -.00719076  00000-0 -82446-2 0  9991,2 52280  53.2172 250.2041 0001655  39.7248 203.1416 15.63726885  1305,6755.04,92.088,378.023,375.787,0.0
52280.0,STARLINK-3764,PAYLOAD,2022-05-17 12:00:00,15.62832843,0.0001898,53.2175,247.3636,28.0807,259.5375,-0.008494,-0.0071547,0.0,0 STARLINK-3764,1 52280U 22041V   22137.50001157 -.00715470  00000-0 -84940-2 0  9993,2 52280  53.2175 247.3636 0001898  28.0807 259.5375 15.62832843  5298,6757.616,92.14,380.763,378.198,0.0
52280.0,STARLINK-3764,PAYLOAD,2022-05-17 14:00:01,15.62707103,0.0002011,53.2174,246.9587,24.7631,12.0163,-0.0085799999999999,-0.00718867,0.0,0 STARLINK-3764,1 52280U 22041V   22137.58335648 -.00718867  00000-0 -85800-2 0  9995,2 52280  53.2174 246.9587 0002011  24.7631  12.0163 15.62707103  1308,6757.978,92.148,381.202,378.484,0.0
52280.0,STARLINK-3764,PAYLOAD,2022-05-17 22:00:01,15.62195452,0.0001514,53.2174,245.337,40.2876,72.4978,-0.0087135,-0.00715697,0.0,0 STARLINK-3764,1 52280U 22041V   22137.91668981 -.00715697  00000-0 -87135-2 0  9992,2 52280  53.2174 245.3370 0001514  40.2876  72.4978 15.62195452  1304,6759.454000000002,92.178,382.342,380.295,0.0
52280.0,STARLINK-3764,PAYLOAD,2022-05-18 12:00:00,15.6130101,0.0001959,53.2176,242.5035,30.8348,123.4204,-0.0089785,-0.00712532,0.0,0 STARLINK-3764,1 52280U 22041V   22138.50001157 -.00712532  00000-0 -89785-2 0  9992,2 52280  53.2176 242.5035 0001959  30.8348 123.4204 15.61301010  5441,6762.035,92.231,385.225,382.575,0.0
52280.0,STARLINK-3764,PAYLOAD,2022-05-18 14:00:01,15.61175398,0.0001866,53.2177,242.0993,34.039,228.8527,-0.0090676,-0.00715785,0.0,0 STARLINK-3764,1 52280U 22041V   22138.58334491 -.00715785  00000-0 -90676-2 0  9994,2 52280  53.2177 242.0993 0001866  34.0390 228.8527 15.61175398  1307,6762.398,92.238,385.525,383.001,0.0
52280.0,STARLINK-3764,PAYLOAD,2022-05-18 22:00:00,15.606662900000002,0.0001445,53.2174,240.4813,39.6755,297.3829,-0.0092639,-0.00716799,0.0,0 STARLINK-3764,1 52280U 22041V   22138.91667824 -.00716799  00000-0 -92639-2 0  9997,2 52280  53.2174 240.4813 0001445  39.6755 297.3829 15.60666290  1307,6763.868,92.268,386.711,384.756,0.0
52280.0,STARLINK-3764,PAYLOAD,2022-05-19 14:00:01,15.59646118,0.0002119,53.2173,237.2512,27.3004,96.3174,-0.0096234,-0.00716116,0.0,0 STARLINK-3764,1 52280U 22041V   22139.58335648 -.00716116  00000-0 -96234-2 0  9995,2 52280  53.2173 237.2512 0002119  27.3004  96.3174 15.59646118  1301,6766.816999999999,92.329,390.116,387.249,0.0
52280.0,STARLINK-3764,PAYLOAD,2022-05-19 22:00:00,15.5913649,0.0001733,53.2174,235.6367,39.0418,156.8398,-0.0098244,-0.0071679,0.0,0 STARLINK-3764,1 52280U 22041V   22139.91667824 -.00716790  00000-0 -98244-2 0  9997,2 52280  53.2174 235.6367 0001733  39.0418 156.8398 15.59136490  5673,6768.292,92.359,391.33,388.984,0.0
52280.0,STARLINK-3764,PAYLOAD,2022-05-20 14:00:01,15.581148,0.0001804,53.2176,232.4141,15.4754,323.2243,-0.010165,-0.00713643,0.0,0 STARLINK-3764,1 52280U 22041V   22140.58334491 -.00713643  00000-0 -10165-1 0  9992,2 52280  53.2176 232.4141 0001804  15.4754 323.2243 15.58114800  1305,6771.25,92.419,394.337,391.894,0.0
52280.0,STARLINK-3764,PAYLOAD,2022-05-20 22:00:00,15.57605743,0.0001553,53.2175,230.8032,32.5006,16.6894,-0.010383,-0.00714875,0.0,0 STARLINK-3764,1 52280U 22041V   22140.91667824 -.00714875  00000-0 -10383-1 0  9998,2 52280  53.2175 230.8032 0001553  32.5006  16.6894 15.57605743  5822,6772.726,92.45,395.642,393.539,0.0
52280.0,STARLINK-3764,PAYLOAD,2022-05-21 06:00:00,15.57094893,0.0001712,53.2177,229.1935,36.2208,82.8469,-0.010546,-0.00712499,0.0,0 STARLINK-3764,1 52280U 22041V   22141.25001157 -.00712499  00000-0 -10546-1 0  9998,2 52280  53.2177 229.1935 0001712  36.2208  82.8469 15.57094893  1309,6774.206999999999,92.48,397.232,394.912,0.0
52280.0,STARLINK-3764,PAYLOAD,2022-05-21 14:00:01,15.56585099,0.0001774999999999,53.2176,227.588,41.277,147.1189,-0.010763,-0.00713316,0.0,0 STARLINK-3764,1 52280U 22041V   22141.58335648 -.00713316  00000-0 -10763-1 0  9999,2 52280  53.2176 227.5880 0001775  41.2770 147.1189 15.56585099  1304,6775.686,92.51,398.754,396.348,0.0
52280.0,STARLINK-3764,PAYLOAD,2022-05-21 20:00:01,15.56203279,0.0001653,53.2172,226.3825,39.931,109.9465,-0.010939,-0.0071456,0.0,0 STARLINK-3764,1 52280U 22041V   22141.83334491 -.00714560  00000-0 -10939-1 0  9999,2 52280  53.2172 226.3825 0001653  39.9310 109.9465 15.56203279  5961,6776.794,92.533,399.779,397.539,0.0
52280.0,STARLINK-3764,PAYLOAD,2022-05-21 22:00:00,15.56077695,0.0001530999999999,53.2174,225.9805,46.4775,210.505,-0.011048,-0.00717968,0.0,0 STARLINK-3764,1 52280U 22041V   22141.91667824 -.00717968  00000-0 -11048-1 0  9994,2 52280  53.2174 225.9805 0001531  46.4775 210.5050 15.56077695  1303,6777.159000000002,92.54,400.061,397.986,0.0
52280.0,STARLINK-3764,PAYLOAD,2022-05-22 14:00:01,15.55056945,0.00016,53.2175,222.7732,37.1274,355.3192,-0.011448,-0.00716419,0.0,0 STARLINK-3764,1 52280U 22041V   22142.58334491 -.00716419  00000-0 -11448-1 0  9993,2 52280  53.2175 222.7732 0001600  37.1274 355.3192 15.55056945  1305,6780.124,92.601,403.074,400.904,0.0
52280.0,STARLINK-3764,PAYLOAD,2022-05-22 22:00:01,15.54545748,0.0001506,53.2174,221.1692,41.4414,57.8845,-0.011622,-0.00713909,0.0,0 STARLINK-3764,1 52280U 22041V   22142.91668981 -.00713909  00000-0 -11622-1 0  9999,2 52280  53.2174 221.1692 0001506  41.4414  57.8845 15.54545748  6139,6781.61,92.632,404.497,402.454,0.0
52280.0,STARLINK-3764,PAYLOAD,2022-05-23 14:00:01,15.53524711,0.0001833,53.2176,217.9692,38.4218,192.6268,-0.012024,-0.00711682,0.0,0 STARLINK-3764,1 52280U 22041V   22143.58334491 -.00711682  00000-0 -12024-1 0  9992,2 52280  53.2176 217.9692 0001833  38.4218 192.6268 15.53524711  1302,6784.581999999999,92.692,407.69,405.203,0.0
52280.0,STARLINK-3764,PAYLOAD,2022-05-23 20:00:01,15.53143714,0.0001658,53.2173,216.7689,42.6578,147.1796,-0.012249,-0.00714667,0.0,0 STARLINK-3764,1 52280U 22041V   22143.83334491 -.00714667  00000-0 -12249-1 0  9995,2 52280  53.2173 216.7689 0001658  42.6578 147.1796 15.53143714  6286,6785.691,92.715,408.681,406.431,0.0
52280.0,STARLINK-3764,PAYLOAD,2022-05-23 22:00:01,15.53017602,0.000147,53.2176,216.3687,45.5211,250.5671,-0.012349,-0.00716948,0.0,0 STARLINK-3764,1 52280U 22041V   22143.91668981 -.00716948  00000-0 -12349-1 0  9993,2 52280  53.2176 216.3687 0001470  45.5211 250.5671 15.53017602  1306,6786.058000000001,92.723,408.921,406.926,0.0
52280.0,STARLINK-3764,PAYLOAD,2022-05-24 12:10:49,15.53153491,0.0002226,53.2166,213.5191,50.4606,309.6602,-0.0049637,-0.00305269,0.0,0 STARLINK-3764,1 52280U 22041V   22144.50751694 -.00305269  00000-0 -49637-2 0  9994,2 52280  53.2166 213.5191 0002226  50.4606 309.6602 15.53153491  6387,6785.663000000001,92.715,409.038,406.017,0.0
52280.0,STARLINK-3764,PAYLOAD,2022-05-24 22:00:00,15.51484985,0.0001667,53.2175,211.5794,38.2507,89.0214,-0.012951,-0.00711784,0.0,0 STARLINK-3764,1 52280U 22041V   22144.91667824 -.00711784  00000-0 -12951-1 0  9991,2 52280  53.2175 211.5794 0001667  38.2507  89.0214 15.51484985  6444,6790.526999999999,92.814,413.524,411.26,0.0
52280.0,STARLINK-3764,PAYLOAD,2022-05-25 14:00:01,15.50432152,0.0001899,53.2175,208.3935,35.7598,215.9535,-0.011922,-0.00637062,0.0,0 STARLINK-3764,1 52280U 22041V   22145.58334491 -.00637062  00000-0 -11922-1 0  9999,2 52280  53.2175 208.3935 0001899  35.7598 215.9535 15.50432152  1308,6793.6,92.877,416.755,414.175,0.0
52280.0,STARLINK-3764,PAYLOAD,2022-05-25 22:00:00,15.49892813,0.000152,53.2175,206.7987,48.8791,264.1314,-0.00023377,-0.000137,0.0,0 STARLINK-3764,1 52280U 22041V   22145.91667824 -.00013700  00000-0 -23377-3 0  9991,2 52280  53.2175 206.7987 0001520  48.8791 264.1314 15.49892813  6609,6795.176,92.91,418.074,416.008,0.0
52280.0,STARLINK-3764,PAYLOAD,2022-05-26 12:07:45,15.50518922,0.0001945,53.2155,203.974,26.6936,333.4174,-0.0038356,-0.00217064,0.0,0 STARLINK-3764,1 52280U 22041V   22146.50538984 -.00217064  00000-0 -38356-2 0  9992,2 52280  53.2155 203.9740 0001945  26.6936 333.4174 15.50518922  6690,6793.347,92.872,416.533,413.891,0.0
52280.0,STARLINK-3764,PAYLOAD,2022-05-26 14:00:01,15.499094,0.0001764999999999,53.2151,203.6045,39.2104,35.8083,-0.00023856,-0.00013979,0.0,0 STARLINK-3764,1 52280U 22041V   22146.58334491 -.00013979  00000-0 -23856-3 0  9996,2 52280  53.2151 203.6045 0001765  39.2104  35.8083 15.49909400  1306,6795.128000000002,92.909,418.192,415.794,0.0
